
# Worst residual: 5.13 km
# MJD 57965.000000 (2017 Jul 31  0:00)
1967-040F = NORAD 02770
1 02770U 67040F   17212.49919926  .00000000  00000-0  00000-0 0    08
2 02770 039.0215 008.4850 8373803 134.3298 280.1571 00.50941298    07

# Worst residual: 5.20 km
# MJD 57966.000000 (2017 Aug  1  0:00)
1967-040F = NORAD 02770
1 02770U 67040F   17213.49919926  .00000000  00000-0  00000-0 0    09
2 02770 039.0438 008.4147 8373558 134.4032 103.5230 00.50948036    04

# Worst residual: 5.85 km
# MJD 57967.000000 (2017 Aug  2  0:00)
1967-040F = NORAD 02770
1 02770U 67040F   17214.49919926  .00000000  00000-0  00000-0 0    00
2 02770 039.0391 008.3992 8372082 134.4227 286.9341 00.50938850    08

# Worst residual: 5.59 km
# MJD 57968.000000 (2017 Aug  3  0:00)
1967-040F = NORAD 02770
1 02770U 67040F   17215.49919926  .00000000  00000-0  00000-0 0    01
2 02770 039.0618 008.3248 8372350 134.4967 110.2927 00.50945595    06

# Worst residual: 10.48 km
# MJD 57969.000000 (2017 Aug  4  0:00)
1967-040F = NORAD 02770
1 02770U 67040F   17216.49919926  .00000000  00000-0  00000-0 0    02
2 02770 039.0658 008.2966 8372339 134.5231 293.7302 00.50936699    07

# Worst residual: 5.33 km
# MJD 57970.000000 (2017 Aug  5  0:00)
1967-040F = NORAD 02770
1 02770U 67040F   17217.49919926  .00000000  00000-0  00000-0 0    03
2 02770 039.0868 008.2188 8372603 134.6061 117.0694 00.50935652    02

# Worst residual: 15.48 km
# MJD 57971.000000 (2017 Aug  6  0:00)
1967-040F = NORAD 02770
1 02770U 67040F   17218.49919926  .00000000  00000-0  00000-0 0    04
2 02770 039.1104 008.1628 8374800 134.6613 300.4720 00.50933941    05

# Worst residual: 3.92 km
# MJD 57972.000000 (2017 Aug  7  0:00)
1967-040F = NORAD 02770
1 02770U 67040F   17219.49919926  .00000000  00000-0  00000-0 0    05
2 02770 039.1309 008.0858 8373941 134.7585 123.8009 00.50927681    01

# Worst residual: 15.59 km
# MJD 57973.000000 (2017 Aug  8  0:00)
1967-040F = NORAD 02770
1 02770U 67040F   17220.49919926  .00000000  00000-0  00000-0 0    07
2 02770 039.1687 008.0113 8375235 134.8402 307.1109 00.50928557    02

# Worst residual: 7.43 km
# MJD 57974.000000 (2017 Aug  9  0:00)
1967-040F = NORAD 02770
1 02770U 67040F   17221.49919926  .00000000  00000-0  00000-0 0    08
2 02770 039.1859 007.9471 8373033 134.9319 130.4648 00.50933360    03

# Worst residual: 11.20 km
# MJD 57975.000000 (2017 Aug 10  0:00)
1967-040F = NORAD 02770
1 02770U 67040F   17222.49919926  .00000000  00000-0  00000-0 0    09
2 02770 039.2137 007.8890 8370519 134.9935 313.7638 00.50923950    06

# Worst residual: 9.71 km
# MJD 57976.000000 (2017 Aug 11  0:00)
1967-040F = NORAD 02770
1 02770U 67040F   17223.49919926  .00000000  00000-0  00000-0 0    00
2 02770 039.2242 007.8380 8368814 135.0615 137.1432 00.50944294    03

# Worst residual: 7.25 km
# MJD 57977.000000 (2017 Aug 12  0:00)
1967-040F = NORAD 02770
1 02770U 67040F   17224.49919926  .00000000  00000-0  00000-0 0    01
2 02770 039.2372 007.7987 8365983 135.0958 320.5153 00.50933906    09

# Worst residual: 7.06 km
# MJD 57978.000000 (2017 Aug 13  0:00)
1967-040F = NORAD 02770
1 02770U 67040F   17225.49919926  .00000000  00000-0  00000-0 0    02
2 02770 039.2462 007.7464 8366096 135.1511 143.8904 00.50947330    07

# Worst residual: 5.96 km
# MJD 57979.000000 (2017 Aug 14  0:00)
1967-040F = NORAD 02770
1 02770U 67040F   17226.49919926  .00000000  00000-0  00000-0 0    03
2 02770 039.2623 007.7018 8365404 135.1962 327.2784 00.50949058    06

# Worst residual: 4.31 km
# MJD 57980.000000 (2017 Aug 15  0:00)
1967-040F = NORAD 02770
1 02770U 67040F   17227.49919926  .00000000  00000-0  00000-0 0    04
2 02770 039.2715 007.6469 8366513 135.2543 150.6316 00.50944432    05

# Worst residual: 6.47 km
# MJD 57981.000000 (2017 Aug 16  0:00)
1967-040F = NORAD 02770
1 02770U 67040F   17228.49919926  .00000000  00000-0  00000-0 0    05
2 02770 039.2915 007.5982 8366515 135.3130 333.9927 00.50949085    04

# Worst residual: 4.88 km
# MJD 57982.000000 (2017 Aug 17  0:00)
1967-040F = NORAD 02770
1 02770U 67040F   17229.49919926  .00000000  00000-0  00000-0 0    06
2 02770 039.2982 007.5493 8366930 135.3737 157.3318 00.50940515    00

# Worst residual: 11.97 km
# MJD 57983.000000 (2017 Aug 18  0:00)
1967-040F = NORAD 02770
1 02770U 67040F   17230.49919926  .00000000  00000-0  00000-0 0    08
2 02770 039.3130 007.5081 8366771 135.4257 340.6896 00.50932870    03

# Worst residual: 4.10 km
# MJD 57984.000000 (2017 Aug 19  0:00)
1967-040F = NORAD 02770
1 02770U 67040F   17231.49919926  .00000000  00000-0  00000-0 0    09
2 02770 039.3166 007.4670 8365930 135.4820 164.0356 00.50937476    03

# Worst residual: 15.76 km
# MJD 57985.000000 (2017 Aug 20  0:00)
1967-040F = NORAD 02770
1 02770U 67040F   17232.49919926  .00000000  00000-0  00000-0 0    00
2 02770 039.3272 007.4308 8366207 135.5249 347.4079 00.50918361    04

# Worst residual: 4.82 km
# MJD 57986.000000 (2017 Aug 21  0:00)
1967-040F = NORAD 02770
1 02770U 67040F   17233.49919926  .00000000  00000-0  00000-0 0    01
2 02770 039.3298 007.3925 8364919 135.5759 170.7713 00.50936191    03

# Worst residual: 16.76 km
# MJD 57987.000000 (2017 Aug 22  0:00)
1967-040F = NORAD 02770
1 02770U 67040F   17234.49919926  .00000000  00000-0  00000-0 0    02
2 02770 039.3426 007.3524 8365924 135.6211 354.1451 00.50918405    07

# Worst residual: 5.40 km
# MJD 57988.000000 (2017 Aug 23  0:00)
1967-040F = NORAD 02770
1 02770U 67040F   17235.49919926  .00000000  00000-0  00000-0 0    03
2 02770 039.3464 007.3120 8364899 135.6725 177.5182 00.50937307    01

# Worst residual: 12.67 km
# MJD 57989.000000 (2017 Aug 24  0:00)
1967-040F = NORAD 02770
1 02770U 67040F   17236.49919926  .00000000  00000-0  00000-0 0    04
2 02770 039.3634 007.2657 8365669 135.7271 000.8736 00.50932179    02

# Worst residual: 3.68 km
# MJD 57990.000000 (2017 Aug 25  0:00)
1967-040F = NORAD 02770
1 02770U 67040F   17237.49919926  .00000000  00000-0  00000-0 0    05
2 02770 039.3684 007.2241 8365018 135.7794 184.2517 00.50940651    02

# Worst residual: 10.82 km
# MJD 57991.000000 (2017 Aug 26  0:00)
1967-040F = NORAD 02770
1 02770U 67040F   17238.49919926  .00000000  00000-0  00000-0 0    06
2 02770 039.3865 007.1752 8364543 135.8369 007.5962 00.50945153    03

# Worst residual: 2.35 km
# MJD 57992.000000 (2017 Aug 27  0:00)
1967-040F = NORAD 02770
1 02770U 67040F   17239.49919926  .00000000  00000-0  00000-0 0    07
2 02770 039.3901 007.1371 8364119 135.8856 190.9801 00.50945098    08
